{
  "norad_id": 63108,
  "name": "STARLINK-11632 [DTC]",
  "history": [
    {
      "epoch": "2026-03-28T13:44:07.450080Z",
      "apogee_km": 357.06307941561045,
      "perigee_km": 355.4804933508103,
      "latitude_deg": -2.388652134226977e-05,
      "longitude_deg": 91.14430378254589,
      "height_km": 356.1006178015662,
      "semi_major_axis_km": 6734.40878638321,
      "eccentricity": 0.0001175,
      "inclination_deg": 43.0013,
      "raan_deg": 123.1662,
      "arg_perigee_deg": 265.9096,
      "mean_anomaly_deg": 94.1637,
      "mean_motion_rev_day": 15.70918121
    }
  ]
}